{
  "type": "FeatureCollection",
  "features": [
    {
      "type": "Feature",
      "properties": {
        "norad_id": 33765,
        "name": "COSMOS 2251 DEB",
        "group": "cosmos-2251-debris",
        "lat": 24.739478666657224,
        "lon": 4.277678922094447,
        "alt_km": 568.9344667435362,
        "timestamp": "2025-12-03T15:48:03.458964+00:00",
        "meta_object_name": "COSMOS 2251 DEB",
        "meta_object_id": "1993-036N",
        "meta_epoch": "2025-12-03T01:28:12.736992",
        "meta_mean_motion": 15.0901824,
        "meta_eccentricity": 0.00679045,
        "meta_inclination": 74.0113,
        "meta_ra_of_asc_node": 193.1019,
        "meta_arg_of_pericenter": 286.9236,
        "meta_mean_anomaly": 225.2775,
        "meta_ephemeris_type": 0,
        "meta_classification_type": "U",
        "meta_norad_cat_id": 33765,
        "meta_element_set_no": 999,
        "meta_rev_at_epoch": 89472,
        "meta_bstar": 0.0027523493,
        "meta_mean_motion_dot": 0.00046205,
        "meta_mean_motion_ddot": 0,
        "tle_line1": "1 33765U 93036N   25337.06125853  .00046205  00000+0  27523-2 0  9992",
        "tle_line2": "2 33765  74.0113 193.1019 0067904 286.9236 225.2775 15.09018240894728"
      },
      "geometry": {
        "type": "Point",
        "coordinates": [
          4.277678922094447,
          24.739478666657224
        ]
      }
    },
    {
      "type": "Feature",
      "properties": {
        "norad_id": 33766,
        "name": "COSMOS 2251 DEB",
        "group": "cosmos-2251-debris",
        "lat": -68.31000781495622,
        "lon": 106.02001622320907,
        "alt_km": 768.2958748598348,
        "timestamp": "2025-12-03T15:48:03.458974+00:00",
        "meta_object_name": "COSMOS 2251 DEB",
        "meta_object_id": "1993-036P",
        "meta_epoch": "2025-12-03T04:26:00.705696",
        "meta_mean_motion": 14.34889979,
        "meta_eccentricity": 0.00636468,
        "meta_inclination": 74.1845,
        "meta_ra_of_asc_node": 152.3293,
        "meta_arg_of_pericenter": 358.4305,
        "meta_mean_anomaly": 1.6637,
        "meta_ephemeris_type": 0,
        "meta_classification_type": "U",
        "meta_norad_cat_id": 33766,
        "meta_element_set_no": 999,
        "meta_rev_at_epoch": 87608,
        "meta_bstar": 0.00065295711,
        "meta_mean_motion_dot": 1.874e-05,
        "meta_mean_motion_ddot": 0,
        "tle_line1": "1 33766U 93036P   25337.18473039  .00001874  00000+0  65296-3 0  9991",
        "tle_line2": "2 33766  74.1845 152.3293 0063646 358.4305   1.6637 14.34889979876088"
      },
      "geometry": {
        "type": "Point",
        "coordinates": [
          106.02001622320907,
          -68.31000781495622
        ]
      }
    },
    {
      "type": "Feature",
      "properties": {
        "norad_id": 33768,
        "name": "COSMOS 2251 DEB",
        "group": "cosmos-2251-debris",
        "lat": -12.09286699408323,
        "lon": 58.03101157522763,
        "alt_km": 1295.974938842337,
        "timestamp": "2025-12-03T15:48:03.458984+00:00",
        "meta_object_name": "COSMOS 2251 DEB",
        "meta_object_id": "1993-036R",
        "meta_epoch": "2025-12-03T04:49:27.258816",
        "meta_mean_motion": 13.58442113,
        "meta_eccentricity": 0.0365839,
        "meta_inclination": 74.0687,
        "meta_ra_of_asc_node": 235.2605,
        "meta_arg_of_pericenter": 35.1091,
        "meta_mean_anomaly": 79.9215,
        "meta_ephemeris_type": 0,
        "meta_classification_type": "U",
        "meta_norad_cat_id": 33768,
        "meta_element_set_no": 999,
        "meta_rev_at_epoch": 83166,
        "meta_bstar": 0.0005186636,
        "meta_mean_motion_dot": 5.65e-06,
        "meta_mean_motion_ddot": 0,
        "tle_line1": "1 33768U 93036R   25337.20100994  .00000565  00000+0  51866-3 0  9997",
        "tle_line2": "2 33768  74.0687 235.2605 0365839  35.1091  79.9215 13.58442113831666"
      },
      "geometry": {
        "type": "Point",
        "coordinates": [
          58.03101157522763,
          -12.09286699408323
        ]
      }
    },
    {
      "type": "Feature",
      "properties": {
        "norad_id": 33779,
        "name": "COSMOS 2251 DEB",
        "group": "cosmos-2251-debris",
        "lat": -11.05722923082385,
        "lon": 11.532464585668087,
        "alt_km": 653.912667124695,
        "timestamp": "2025-12-03T15:48:03.458993+00:00",
        "meta_object_name": "COSMOS 2251 DEB",
        "meta_object_id": "1993-036U",
        "meta_epoch": "2025-12-03T00:55:01.811424",
        "meta_mean_motion": 14.70149836,
        "meta_eccentricity": 0.00177845,
        "meta_inclination": 74.0444,
        "meta_ra_of_asc_node": 189.529,
        "meta_arg_of_pericenter": 224.8407,
        "meta_mean_anomaly": 285.7962,
        "meta_ephemeris_type": 0,
        "meta_classification_type": "U",
        "meta_norad_cat_id": 33779,
        "meta_element_set_no": 999,
        "meta_rev_at_epoch": 88385,
        "meta_bstar": 0.0015950222,
        "meta_mean_motion_dot": 9.604e-05,
        "meta_mean_motion_ddot": 0,
        "tle_line1": "1 33779U 93036U   25337.03821541  .00009604  00000+0  15950-2 0  9994",
        "tle_line2": "2 33779  74.0444 189.5290 0017784 224.8407 285.7962 14.70149836883856"
      },
      "geometry": {
        "type": "Point",
        "coordinates": [
          11.532464585668087,
          -11.05722923082385
        ]
      }
    },
    {
      "type": "Feature",
      "properties": {
        "norad_id": 33782,
        "name": "COSMOS 2251 DEB",
        "group": "cosmos-2251-debris",
        "lat": -26.895568708085513,
        "lon": 122.69250854964424,
        "alt_km": 775.4235347163003,
        "timestamp": "2025-12-03T15:48:03.459003+00:00",
        "meta_object_name": "COSMOS 2251 DEB",
        "meta_object_id": "1993-036X",
        "meta_epoch": "2025-12-02T22:25:33.716928",
        "meta_mean_motion": 14.40400246,
        "meta_eccentricity": 0.00203224,
        "meta_inclination": 74.0326,
        "meta_ra_of_asc_node": 295.6803,
        "meta_arg_of_pericenter": 2.2173,
        "meta_mean_anomaly": 53.3366,
        "meta_ephemeris_type": 0,
        "meta_classification_type": "U",
        "meta_norad_cat_id": 33782,
        "meta_element_set_no": 999,
        "meta_rev_at_epoch": 87985,
        "meta_bstar": 0.00059932666,
        "meta_mean_motion_dot": 1.882e-05,
        "meta_mean_motion_ddot": 0,
        "tle_line1": "1 33782U 93036X   25336.93441802  .00001882  00000+0  59933-3 0  9994",
        "tle_line2": "2 33782  74.0326 295.6803 0020322   2.2173  53.3366 14.40400246879852"
      },
      "geometry": {
        "type": "Point",
        "coordinates": [
          122.69250854964424,
          -26.895568708085513
        ]
      }
    },
    {
      "type": "Feature",
      "properties": {
        "norad_id": 33785,
        "name": "COSMOS 2251 DEB",
        "group": "cosmos-2251-debris",
        "lat": 15.279211641652202,
        "lon": -106.80892047183193,
        "alt_km": 673.3320441437172,
        "timestamp": "2025-12-03T15:48:03.459012+00:00",
        "meta_object_name": "COSMOS 2251 DEB",
        "meta_object_id": "1993-036AA",
        "meta_epoch": "2025-12-03T08:48:22.547232",
        "meta_mean_motion": 14.70113761,
        "meta_eccentricity": 0.00213406,
        "meta_inclination": 73.8675,
        "meta_ra_of_asc_node": 78.2969,
        "meta_arg_of_pericenter": 20.2137,
        "meta_mean_anomaly": 41.7886,
        "meta_ephemeris_type": 0,
        "meta_classification_type": "U",
        "meta_norad_cat_id": 33785,
        "meta_element_set_no": 999,
        "meta_rev_at_epoch": 88369,
        "meta_bstar": 0.002711171,
        "meta_mean_motion_dot": 0.00016367,
        "meta_mean_motion_ddot": 0,
        "tle_line1": "1 33785U 93036AA  25337.36692763  .00016367  00000+0  27112-2 0  9996",
        "tle_line2": "2 33785  73.8675  78.2969 0021340  20.2137  41.7886 14.70113761883699"
      },
      "geometry": {
        "type": "Point",
        "coordinates": [
          -106.80892047183193,
          15.279211641652202
        ]
      }
    },
    {
      "type": "Feature",
      "properties": {
        "norad_id": 33789,
        "name": "COSMOS 2251 DEB",
        "group": "cosmos-2251-debris",
        "lat": 53.96319745361151,
        "lon": -100.3066163517501,
        "alt_km": 947.0261288860484,
        "timestamp": "2025-12-03T15:48:03.459022+00:00",
        "meta_object_name": "COSMOS 2251 DEB",
        "meta_object_id": "1993-036AE",
        "meta_epoch": "2025-12-03T08:25:27.280416",
        "meta_mean_motion": 13.88759571,
        "meta_eccentricity": 0.02404951,
        "meta_inclination": 74.0635,
        "meta_ra_of_asc_node": 103.3395,
        "meta_arg_of_pericenter": 221.0278,
        "meta_mean_anomaly": 168.3273,
        "meta_ephemeris_type": 0,
        "meta_classification_type": "U",
        "meta_norad_cat_id": 33789,
        "meta_element_set_no": 999,
        "meta_rev_at_epoch": 84965,
        "meta_bstar": 0.0010942945,
        "meta_mean_motion_dot": 1.639e-05,
        "meta_mean_motion_ddot": 0,
        "tle_line1": "1 33789U 93036AE  25337.35101019  .00001639  00000+0  10943-2 0  9998",
        "tle_line2": "2 33789  74.0635 103.3395 0240495 221.0278 168.3273 13.88759571849653"
      },
      "geometry": {
        "type": "Point",
        "coordinates": [
          -100.3066163517501,
          53.96319745361151
        ]
      }
    }
  ]
}